name,type,city,district,description,tags0,tags1,tags2,tags3,hours,cost,lat,lng,gmaps,image_url
台北101觀景台,spot,台北,信義區,台北地標與高空景觀平台,地標,觀景,購物,拍照,依場館或店家為準,依消費或免費,,,https://maps.app.goo.gl/?q=%E5%8F%B0%E5%8C%97101%E8%A7%80%E6%99%AF%E5%8F%B0,https://www.taiwan.net.tw/att/1/big_scenic_spots/pic_7927_32.jpg
國父紀念館,spot,台北,信義區,大型展演與展覽場館，周邊綠地適合散步,文化,展覽,散步,,依場館或店家為準,依消費或免費,,,https://maps.app.goo.gl/?q=%E5%9C%8B%E7%88%B6%E7%B4%80%E5%BF%B5%E9%A4%A8,https://senior.104.com.tw/img/zip/3ba4d0c15ca444d0bdf122c7396a86ae11.jpeg
象山步道,walk,台北,信義區,熱門親山步道，夜景觀賞點,登山,夜景,戶外,,依場館或店家為準,依消費或免費,,,https://maps.app.goo.gl/?q=%E8%B1%A1%E5%B1%B1%E6%AD%A5%E9%81%93,https://www.travel.taipei/image/222132/?r=1637654386987
四四南村,cafe,台北,信義區,眷村改建文創聚落，好丘與市集,文創,咖啡,拍照,,依場館或店家為準,依消費或免費,,,https://maps.app.goo.gl/?q=%E5%9B%9B%E5%9B%9B%E5%8D%97%E6%9D%91,https://www.fun-taiwan.com/Images/PlayNotes/121153-S20120829032355.jpg
松山文創園區,spot,台北,信義區,老菸廠轉型文創基地，展覽與市集,文創,展覽,市集,,依場館或店家為準,依消費或免費,,,https://maps.app.goo.gl/?q=%E6%9D%BE%E5%B1%B1%E6%96%87%E5%89%B5%E5%9C%92%E5%8D%80,https://www.taiwanviptravel.com/articles/images/songshan-cultural-park-img3.jpg
台北世貿中心,spot,台北,信義區,國際展覽與會展場域,展覽,商務,,,依場館或店家為準,依消費或免費,,,https://maps.app.goo.gl/?q=%E5%8F%B0%E5%8C%97%E4%B8%96%E8%B2%BF%E4%B8%AD%E5%BF%83,https://s3cdn.yourator.co/banners/banners/000/002/105/home/a46a299319b407569091a23b72ab0e2c6ab38824.png
台北市政府,spot,台北,信義區,城市地標與周邊市民廣場,地標,公共空間,,,依場館或店家為準,依消費或免費,,,https://maps.app.goo.gl/?q=%E5%8F%B0%E5%8C%97%E5%B8%82%E6%94%BF%E5%BA%9C,https://www.travel.taipei/content/images/attractions/191906/480x360_attractions-image-y-1yhe8xz0e52lrkjvjqkw.jpg
信義香堤大道廣場,walk,台北,信義區,百貨間中庭步道裝置藝術,散步,拍照,購物,,依場館或店家為準,依消費或免費,,,https://maps.app.goo.gl/?q=%E4%BF%A1%E7%BE%A9%E9%A6%99%E5%A0%A4%E5%A4%A7%E9%81%93%E5%BB%A3%E5%A0%B4,https://cdn.walkerland.com.tw/images/upload/poi/p95582/m70171/0585517dd7ffc576a9bb869333fb822752424241.jpg
ATT 4 FUN,spot,台北,信義區,複合娛樂與餐飲購物商場,購物,美食,娛樂,,依場館或店家為準,依消費或免費,,,https://maps.app.goo.gl/?q=ATT%204%20FUN,https://ciaotw-com.sfo3.digitaloceanspaces.com/wp-content/uploads/2023/08/cover-att4fun.jpg
台北國際會議中心,spot,台北,信義區,大型會議與活動場地,會展,商務,,,依場館或店家為準,依消費或免費,,,https://maps.app.goo.gl/?q=%E5%8F%B0%E5%8C%97%E5%9C%8B%E9%9A%9B%E6%9C%83%E8%AD%B0%E4%B8%AD%E5%BF%83,https://i.epochtimes.com/assets/uploads/2009/07/907050303021758-600x400.jpg
大安森林公園,walk,台北,大安區,市區最大公園，生態池與環狀步道,公園,運動,野餐,,依場館或店家為準,依消費或免費,,,https://maps.app.goo.gl/?q=%E5%A4%A7%E5%AE%89%E6%A3%AE%E6%9E%97%E5%85%AC%E5%9C%92,https://nienie.tw/wp-content/uploads/2023/05/%E5%8F%B0%E5%8C%97%E5%B8%82%E7%89%B9%E8%89%B2%E5%85%AC%E5%9C%92%EF%BD%9C%E5%A4%A7%E5%AE%89%E6%A3%AE%E6%9E%97%E5%85%AC%E5%9C%92%E8%A6%AA%E5%AD%90%E6%99%AF%E9%BB%9E%E9%A6%96%E9%81%B8%E8%B6%85%E5%A5%BD%E7%8E%A9%E6%94%80%E7%88%AC%E9%81%8A%E6%A8%82%E8%A8%AD%E6%96%BD-5416.jpg
師大夜市,cafe,台北,大安區,學生族最愛平價美食商圈,夜市,小吃,美食,,依場館或店家為準,依消費或免費,,,https://maps.app.goo.gl/?q=%E5%B8%AB%E5%A4%A7%E5%A4%9C%E5%B8%82,https://www.welcometw.com/wp-content/uploads/2022/03/%E5%B8%AB%E5%A4%A7%E5%A4%9C%E5%B8%82-850x611.jpg
臨江街夜市（通化夜市）,cafe,台北,大安區,在地人氣夜市，宵夜好去處,夜市,小吃,在地,,依場館或店家為準,依消費或免費,,,https://maps.app.goo.gl/?q=%E8%87%A8%E6%B1%9F%E8%A1%97%E5%A4%9C%E5%B8%82%EF%BC%88%E9%80%9A%E5%8C%96%E5%A4%9C%E5%B8%82%EF%BC%89,https://woment.com.tw/wp-content/uploads/2024/02/linjiang-street-night-market-in-taipei-1.jpg
國立臺灣大學校園,walk,台北,大安區,老榕大道與校園人文風景,校園,散步,拍照,,依場館或店家為準,依消費或免費,,,https://maps.app.goo.gl/?q=%E5%9C%8B%E7%AB%8B%E8%87%BA%E7%81%A3%E5%A4%A7%E5%AD%B8%E6%A0%A1%E5%9C%92,https://storage.googleapis.com/opinion-cms-cwg-tw/article/201804/article-5ae6c4e816920.jpg
公館商圈,cafe,台北,大安區,學生美食、服飾與小店聚集,美食,逛街,平價,,依場館或店家為準,依消費或免費,,,https://maps.app.goo.gl/?q=%E5%85%AC%E9%A4%A8%E5%95%86%E5%9C%88,https://s.yimg.com/ny/api/res/1.2/Sr.gg0dYHaXWvkQ9QsNb1w--/YXBwaWQ9aGlnaGxhbmRlcjt3PTY0MDtoPTQyNw--/https://media.zenfs.com/zh-tw/chinatimes.com.tw/81461922cbd8dd945661d943a69a0087
建國假日花市,spot,台北,大安區,週末限定大型花市與玉市,市集,花卉,逛街,,依場館或店家為準,依消費或免費,,,https://maps.app.goo.gl/?q=%E5%BB%BA%E5%9C%8B%E5%81%87%E6%97%A5%E8%8A%B1%E5%B8%82,https://attach.setn.com/newsimages/2018/11/07/1629024-XXL.jpg
青田街老屋聚落,walk,台北,大安區,日式老屋咖啡與人文巷弄,文青,咖啡,老屋,,依場館或店家為準,依消費或免費,,,https://maps.app.goo.gl/?q=%E9%9D%92%E7%94%B0%E8%A1%97%E8%80%81%E5%B1%8B%E8%81%9A%E8%90%BD,https://decolifetw.com/wp-content/uploads/2023/04/%E9%9D%92%E7%94%B0%E8%A1%97-v2-6806.jpg
忠孝東路東區商圈,spot,台北,大安區,東區延伸商圈，餐飲林立,美食,購物,,,依場館或店家為準,依消費或免費,,,https://maps.app.goo.gl/?q=%E5%92%8C%E5%B9%B3%E6%9D%B1%E8%B7%AF%E6%9D%B1%E5%8D%80%E5%95%86%E5%9C%88,"https://p1-news.hfcdn.com/p1-news/MzQxMTA3Nm5ld3M,/d2a6540aa1e67a3a_800x364.jpg/qs/w=600&h=600&r=16888"
福州山親山步道,walk,台北,大安區,市區近郊步道，展望大安天際線,登山,景觀,戶外,,依場館或店家為準,依消費或免費,,,https://maps.app.goo.gl/?q=%E7%A6%8F%E5%B7%9E%E5%B1%B1%E8%A6%AA%E5%B1%B1%E6%AD%A5%E9%81%93,https://obs.line-scdn.net/0h6x5PzDUCaVcIKUHQZcYWADF_ZSY7TXxRZlEmMXl8MWQjHzIGYEx2LSguNWY5SSZSMVNyYyt6Y24iHi5WMhg
中正紀念堂,spot,台北,中正區,經典地標與廣場，儀隊交接,地標,歷史,展演,,依場館或店家為準,依消費或免費,,,https://maps.app.goo.gl/?q=%E4%B8%AD%E6%AD%A3%E7%B4%80%E5%BF%B5%E5%A0%82,https://image.cdn-eztravel.com.tw/NujfM1eJ7rMz-dPFzw1Y4WDsyZdOSjiSF7SzDML09uk/rs:fill:600:315:1/g:ce/aHR0cHM6Ly92YWNhdGlvbi5jZG4tZXp0cmF2ZWwuY29tLnR3L3BvaS90dy9UUEUvQ2hpYW5nIEthaS1zaGVrIE1lbW9yaWFsIEhhbGwvc2h1dHRlcnN0b2NrXzc1NDI2NzgxLmpwZw.jpg
華山1914文化創意產業園區,spot,台北,中正區,酒廠改建展演場域，市集與展覽,文創,展覽,市集,,依場館或店家為準,依消費或免費,,,https://maps.app.goo.gl/?q=%E8%8F%AF%E5%B1%B11914%E6%96%87%E5%8C%96%E5%89%B5%E6%84%8F%E7%94%A2%E6%A5%AD%E5%9C%92%E5%8D%80,https://media.huashan1914.com/WebUPD/huashan1914/creative/13_18060412160413437.jpg
國立臺灣博物館,spot,台北,中正區,臺灣最早的博物館之一,博物館,歷史,自然,,依場館或店家為準,依消費或免費,,,https://maps.app.goo.gl/?q=%E5%9C%8B%E7%AB%8B%E8%87%BA%E7%81%A3%E5%8D%9A%E7%89%A9%E9%A4%A8,https://www.dribs-drabs.com/wp-content/uploads/2024/06/01-1.jpg
二二八和平紀念公園,walk,台北,中正區,市中心綠地與紀念空間,公園,歷史,散步,,依場館或店家為準,依消費或免費,,,https://maps.app.goo.gl/?q=%E4%BA%8C%E4%BA%8C%E5%85%AB%E5%92%8C%E5%B9%B3%E7%B4%80%E5%BF%B5%E5%85%AC%E5%9C%92,https://senior.104.com.tw/img/zip/09a73f13ec7744909b8f6e93b5215b9611.jpg
國家兩廳院,spot,台北,中正區,指標性表演藝術場館及古典音樂與演出核心場域,表演,藝術,建築,,依場館或店家為準,依消費或免費,,,https://maps.app.goo.gl/?q=%E5%9C%8B%E5%AE%B6%E6%88%B2%E5%8A%87%E9%99%A2,https://www.travel.taipei/content/images/attractions/180680/1024x768_attractions-image-g0ujveena0qej645jqisxa.jpg
總統府,spot,台北,中正區,歷史建築外觀與特定日開放參觀,歷史,建築,地標,,依場館或店家為準,依消費或免費,,,https://maps.app.goo.gl/?q=%E7%B8%BD%E7%B5%B1%E5%BA%9C,https://photo.travelking.com.tw/scenery/673EAAFB-2D97-4615-B293-F4B5BDB54B54_e.jpg
南門市場,cafe,台北,中正區,傳統市場與老字號南北貨,市場,美食,在地,,依場館或店家為準,依消費或免費,,,https://maps.app.goo.gl/?q=%E5%8D%97%E9%96%80%E5%B8%82%E5%A0%B4,https://lordcat.net/wp-content/uploads/2023/10/1737038718-161b0aebd8d354104f06803914363a0b.jpg
臺北植物園,walk,台北,中正區,荷花池與溫室植物，都市中的綠洲,自然,散步,拍照,,依場館或店家為準,依消費或免費,,,https://maps.app.goo.gl/?q=%E8%87%BA%E5%8C%97%E6%A4%8D%E7%89%A9%E5%9C%92,https://www.taiwan.net.tw/att/1/big_scenic_spots/pic_R137_11.jpg
永康街商圈,cafe,台北,大安區,鼎泰豐等名店雲集的美食街,美食,甜點,逛街,,依場館或店家為準,依消費或免費,,,https://maps.app.goo.gl/?q=%E6%B0%B8%E5%BA%B7%E8%A1%97%E5%95%86%E5%9C%88,https://static.wealth.com.tw/92d60f2ec91fa8c2cd4dab4ed7208196e0d296f1.jpg
迪化街,walk,台北,大同區,百年南北貨老街與文創小店,老街,歷史,文創,,依場館或店家為準,依消費或免費,,,https://maps.app.goo.gl/?q=%E8%BF%AA%E5%8C%96%E8%A1%97,https://taiwantour.net/wp-content/uploads/2021/10/1634115625-17214818bcd90dfc22143fea3318d7e1.jpg
寧夏夜市,cafe,台北,大同區,在地人推薦的傳統夜市,夜市,小吃,在地,,依場館或店家為準,依消費或免費,,,https://maps.app.goo.gl/?q=%E5%AF%A7%E5%A4%8F%E5%A4%9C%E5%B8%82,https://esg-asset.tvbs.com.tw/articles/img/DzDMT9c0kdEMBjGLQZ8Pc4lzhnqNvdCftxKQguDZ.jpg
大稻埕碼頭,walk,台北,大同區,河岸夕陽與市集活動,河岸,散步,拍照,,依場館或店家為準,依消費或免費,,,https://maps.app.goo.gl/?q=%E5%A4%A7%E7%A8%BB%E5%9F%95%E7%A2%BC%E9%A0%AD,https://www.travel.taipei/content/images/attractions/223127/1920x1080_attractions-image-xx_kz-dirkmkcabe1deyng.jpg
霞海城隍廟,spot,台北,大同區,月老聞名的信仰中心,宗教,寺廟,古蹟,歷史,依場館或店家為準,依消費或免費,,,https://maps.app.goo.gl/?q=%E9%9C%9E%E6%B5%B7%E5%9F%8E%E9%9A%8D%E5%BB%9F,https://www.taiwan.net.tw/att/1/big_scenic_spots/pic_2595_7.jpg
永樂市場,spot,台北,大同區,布市與傳統市場美食,市場,布料,美食,,依場館或店家為準,依消費或免費,,,https://maps.app.goo.gl/?q=%E6%B0%B8%E6%A8%82%E5%B8%82%E5%A0%B4,https://lh3.googleusercontent.com/places/ANJU3Dvdpwl3HR-CsqyJHpqS_UTdvPuNLFfxzueb0xVMnFDcjISj7ik82_BO_Ff5b6_6s2rr8CK8R7R3h_FLS_F_a98K18zHY8dBmu8=s1600-w4032
保安街商圈,walk,台北,大同區,傳統商號與小吃聚集,小吃,老街,在地,,依場館或店家為準,依消費或免費,,,https://maps.app.goo.gl/?q=%E4%BF%9D%E5%AE%89%E8%A1%97%E5%95%86%E5%9C%88,https://v3-statics.mirrormedia.mg/images/20201209104235-86f4fa849bc9bed3ab3675b770187c8a-w1600.webP
延平河濱公園,walk,台北,大同區,河濱自行車道與親水空間,河濱,單車,戶外,,依場館或店家為準,依消費或免費,,,https://maps.app.goo.gl/?q=%E5%BB%B6%E5%B9%B3%E6%B2%B3%E6%BF%B1%E5%85%AC%E5%9C%92,https://www.travel.taipei/image/336867/?r=1666938432479
圓環周邊小吃,cafe,台北,大同區,老臺北小吃復興基地,小吃,在地,傳統,,依場館或店家為準,依消費或免費,,,https://maps.app.goo.gl/?q=%E5%9C%93%E7%92%B0%E5%91%A8%E9%82%8A%E5%B0%8F%E5%90%83,https://upload.wikimedia.org/wikipedia/commons/f/f5/%E5%BB%BA%E6%88%90%E5%9C%93%E7%92%B0%E9%B3%A5%E7%9E%B0%E5%9C%96%EF%BC%88%E5%8F%B0%E5%8C%97%E5%B8%82%E5%B7%A5%E5%8B%99%E5%B1%80%E6%8F%90%E4%BE%9B%EF%BC%89-800x534.jpg
大稻埕音樂碼頭活動,spot,台北,大同區,不定期音樂會與市集,音樂,市集,活動,,依場館或店家為準,依消費或免費,,,https://maps.app.goo.gl/?q=%E5%A4%A7%E7%A8%BB%E5%9F%95%E9%9F%B3%E6%A8%82%E7%A2%BC%E9%A0%AD%E6%B4%BB%E5%8B%95,https://cdn-www.cw.com.tw/article/202409/purchase-reauisition-66fa3b1bd6e95.jpg
行天宮,spot,台北,中山區,香火鼎盛的城市信仰中心,宗教,寺廟,祈福,,依場館或店家為準,依消費或免費,,,https://maps.app.goo.gl/?q=%E8%A1%8C%E5%A4%A9%E5%AE%AE,https://upload.wikimedia.org/wikipedia/commons/thumb/8/8e/Xingtian_Temple_07.23.jpg/1200px-Xingtian_Temple_07.23.jpg
大佳河濱公園,walk,台北,中山區,寬闊河濱草地與自行車道,親子,公園,河濱,單車,依場館或店家為準,依消費或免費,,,https://maps.app.goo.gl/?q=%E5%A4%A7%E4%BD%B3%E6%B2%B3%E6%BF%B1%E5%85%AC%E5%9C%92,https://cdn-smiletaiwan.cw.com.tw/article/202509/article-68ce74754dd84.jpg
林安泰古厝民俗文物館,spot,台北,中山區,古宅園林與民俗展,古蹟,民俗,建築,,依場館或店家為準,依消費或免費,,,https://maps.app.goo.gl/?q=%E6%9E%97%E5%AE%89%E6%B3%B0%E5%8F%A4%E5%8E%9D%E6%B0%91%E4%BF%97%E6%96%87%E7%89%A9%E9%A4%A8,https://upload.wikimedia.org/wikipedia/commons/2/29/%E6%9E%97%E5%AE%89%E6%B3%B0%E5%8F%A4%E5%8E%9D%E6%AD%A3%E9%9D%A2%E7%85%A7.jpg
美麗華百樂園摩天輪,spot,台北,中山區,摩天輪與購物娛樂,觀景,購物,娛樂,,依場館或店家為準,依消費或免費,,,https://maps.app.goo.gl/?q=%E7%BE%8E%E9%BA%97%E8%8F%AF%E7%99%BE%E6%A8%82%E5%9C%92%E6%91%A9%E5%A4%A9%E8%BC%AA,https://www.travel.taipei/content/images/attractions/182754/1024x768_attractions-image-ieknzh_o7eubthlyxcgirw.jpg
晴光商圈,cafe,台北,中山區,晴光市場與在地美食,市場,小吃,美食,,依場館或店家為準,依消費或免費,,,https://maps.app.goo.gl/?q=%E6%99%B4%E5%85%89%E5%95%86%E5%9C%88,https://alinalife.tw/wp-content/uploads/IMG_1358-1.jpg
花博公園（新生園區）,walk,台北,中山區,都市綠地與展館,公園,花卉,散步,,依場館或店家為準,依消費或免費,,,https://maps.app.goo.gl/?q=%E8%8A%B1%E5%8D%9A%E5%85%AC%E5%9C%92%EF%BC%88%E6%96%B0%E7%94%9F%E5%9C%92%E5%8D%80%EF%BC%89,https://cc.tvbs.com.tw/img/program/upload/2022/05/17/20220517130706-3b87489a.jpg
榮星花園公園,walk,台北,中山區,社區綠地與步道,公園,散步,,,依場館或店家為準,依消費或免費,,,https://maps.app.goo.gl/?q=%E6%A6%AE%E6%98%9F%E8%8A%B1%E5%9C%92%E5%85%AC%E5%9C%92,https://travelss.net/wp-content/uploads/2025/01/image-17-686.jpg
中山站南西商圈,cafe,台北,中山區,百貨林立與文青小店,購物,咖啡,逛街,,依場館或店家為準,依消費或免費,,,https://maps.app.goo.gl/?q=%E4%B8%AD%E5%B1%B1%E7%AB%99%E5%8D%97%E8%A5%BF%E5%95%86%E5%9C%88,https://cdn.bella.tw/files/IMG_0147.JPG
濱江魚市（臺北漁市）,spot,台北,中山區,清晨魚市場體驗與餐飲,市場,海鮮,在地,,依場館或店家為準,依消費或免費,,,https://maps.app.goo.gl/?q=%E6%BF%B1%E6%B1%9F%E9%AD%9A%E5%B8%82%EF%BC%88%E8%87%BA%E5%8C%97%E6%BC%81%E5%B8%82%EF%BC%89,https://www.travel.taipei/content/images/attractions/492038/1024x768_attractions-image-llovsc3dnksxq7w1acs5ha.jpg
心中山線形公園,walk,台北,中山區,中山區周邊綠地與步道,公園,步道,,,依場館或店家為準,依消費或免費,,,https://maps.app.goo.gl/8FyJFL69sKAqMfXK7,https://www.travel.taipei/content/images/attractions/468031/1024x768_attractions-image-t5d0s_ed5ug6vafs4bjahw.jpg
饒河街觀光夜市,cafe,台北,松山區,捷運松山站外的知名觀光夜市，旁邊還有香火鼎盛的松山慈祐宮及彩虹橋可以欣賞河畔景色,夜市,小吃,在地,,依場館或店家為準,依消費或免費,,,https://maps.app.goo.gl/?q=%E9%A5%92%E6%B2%B3%E8%A1%97%E8%A7%80%E5%85%89%E5%A4%9C%E5%B8%82,https://www.travel.taipei/content/images/attractions/282180/1024x768_attractions-image--rznjhetiuoqnzoyqppjgw.jpg
民生社區,cafe,台北,松山區,質感住宅區與咖啡早午餐,咖啡,早午餐,散步,,依場館或店家為準,依消費或免費,,,https://maps.app.goo.gl/?q=%E6%B0%91%E7%94%9F%E7%A4%BE%E5%8D%80,https://lh5.googleusercontent.com/_E50dJYFfN_X30sP3lLGOWlM6bdF-wA6azmm0mTMYH8BvU-M0t-j_Mtu5gJjsocaIC2ETlLK0Rgo_4iXdlFy3UePkZUL4XdiPdNcR7xkj8djbVzdGYsVwt5d_hhOGxYa2sgk1rX3WXKgNR4HWA
富錦街,walk,台北,松山區,綠蔭大道與特色店家,散步,文青,咖啡,,依場館或店家為準,依消費或免費,,,https://maps.app.goo.gl/?q=%E5%AF%8C%E9%8C%A6%E8%A1%97,https://static.accupass.com/userupload/c92f169b1daf452e8185dc37089e7c1b.jpg
松山慈祐宮,spot,台北,松山區,在地信仰與廟埕文化,宗教,寺廟,,,依場館或店家為準,依消費或免費,,,https://maps.app.goo.gl/?q=%E6%9D%BE%E5%B1%B1%E6%85%88%E7%A5%90%E5%AE%AE,https://www.travel.taipei/content/images/instagram/3646484710137840798_5768298297/std_4414b05f967d4b79b9a714d6e1348ad7.jpg
臺北小巨蛋,spot,台北,松山區,體育賽事與演唱會場地,展演,運動,活動,,依場館或店家為準,依消費或免費,,,https://maps.app.goo.gl/?q=%E8%87%BA%E5%8C%97%E5%B0%8F%E5%B7%A8%E8%9B%8B,https://www.travel.taipei/image/65479
三民公園,walk,台北,松山區,社區公園休憩空間,公園,親子,休閒,,依場館或店家為準,依消費或免費,,,https://maps.app.goo.gl/?q=%E4%B8%89%E6%B0%91%E5%85%AC%E5%9C%92,https://source.unsplash.com/featured/?%E5%8F%B0%E5%8C%97%20%E4%B8%89%E6%B0%91%E5%85%AC%E5%9C%92
八德資訊商圈,cafe,台北,大安區,著名的3C產品購物商圈，周邊有三創商場及華山文創園區，還有很多小吃店聚集而成的特色商圈,市場,小吃,在地,,依場館或店家為準,依消費或免費,,,https://maps.app.goo.gl/?q=%E5%85%AB%E5%BE%B7%E5%95%86%E5%9C%88,https://encrypted-tbn0.gstatic.com/images?q=tbn:ANd9GcTdBLj9djGsdeOta5ec8wnZxp8nAaYYQwqKxQ&s
CITYLINK松山,spot,台北,松山區,車站共構購物中心,購物,美食,,,依場館或店家為準,依消費或免費,,,https://maps.app.goo.gl/?q=CITYLINK%E6%9D%BE%E5%B1%B1,https://pic.pimg.tw/jerrylu817/1513778855-1530523316_n.jpg
饒河觀光夜市福德祠,spot,台北,松山區,夜市旁在地廟宇,宗教,在地,,,依場館或店家為準,依消費或免費,,,https://maps.app.goo.gl/?q=%E9%A5%92%E6%B2%B3%E8%A7%80%E5%85%89%E5%A4%9C%E5%B8%82%E7%A6%8F%E5%BE%B7%E7%A5%A0,https://source.unsplash.com/featured/?%E5%8F%B0%E5%8C%97%20%E9%A5%92%E6%B2%B3%E8%A7%80%E5%85%89%E5%A4%9C%E5%B8%82%E7%A6%8F%E5%BE%B7%E7%A5%A0
龍山寺,spot,台北,萬華區,艋舺代表性古寺,宗教,寺廟,古蹟,,依場館或店家為準,依消費或免費,,,https://maps.app.goo.gl/?q=%E9%BE%8D%E5%B1%B1%E5%AF%BA,https://farm8.staticflickr.com/7162/6724905529_0e7f349036.jpg
剝皮寮歷史街區,walk,台北,萬華區,清代街屋群與展覽,歷史,拍照,寺廟,古蹟,依場館或店家為準,依消費或免費,,,https://maps.app.goo.gl/?q=%E5%89%9D%E7%9A%AE%E5%AF%AE%E6%AD%B7%E5%8F%B2%E8%A1%97%E5%8D%80,https://www.saydigi.com/wp-content/uploads/2023/06/fb653df1643dae39031c37c37fd7f94e.jpg
華西街觀光夜市,cafe,台北,萬華區,觀光夜市與小吃,夜市,小吃,在地,,依場館或店家為準,依消費或免費,,,https://maps.app.goo.gl/?q=%E8%8F%AF%E8%A5%BF%E8%A1%97%E8%A7%80%E5%85%89%E5%A4%9C%E5%B8%82,https://lordcat.net/wp-content/uploads/2022/06/1656646478-ba6f1ba275939adeae421275c42a9d44.jpg
西門町商圈,cafe,台北,萬華區,年輕潮流購物娛樂區,購物,美食,娛樂,,依場館或店家為準,依消費或免費,,,https://maps.app.goo.gl/?q=%E8%A5%BF%E9%96%80%E7%94%BA%E5%95%86%E5%9C%88,https://www.taiwan.net.tw/att/1/big_scenic_spots/pic_2254_3.jpg
西本願寺廣場,walk,台北,萬華區,日式遺構與綠地廣場,歷史,散步,拍照,,依場館或店家為準,依消費或免費,,,https://maps.app.goo.gl/?q=%E8%A5%BF%E6%9C%AC%E9%A1%98%E5%AF%BA%E5%BB%A3%E5%A0%B4,https://images.squarespace-cdn.com/content/v1/5438e2c6e4b0b18459a8ca06/73c785d8-2061-4c75-ba6b-a7c92e4d2dff/GTJ-2022-0131-14.jpg
青年公園,walk,台北,萬華區,具有生態池、大型遊樂場及運動場等設施的市民休憩公園,公園,運動,親子,,依場館或店家為準,依消費或免費,,,https://maps.app.goo.gl/?q=%E9%9D%92%E5%B9%B4%E5%85%AC%E5%9C%92,https://cdn.bella.tw/indeximage/EquC3mW1Fk02Nikh8ZSsyBRMZI7B0WNb0fzXw1qt.jpeg
艋舺清水巖祖師廟,spot,台北,萬華區,在地信仰中心,宗教,文化,,,依場館或店家為準,依消費或免費,,,https://maps.app.goo.gl/?q=%E8%89%8B%E8%88%BA%E6%B8%85%E6%B0%B4%E5%B7%96%E7%A5%96%E5%B8%AB%E5%BB%9F,https://live.staticflickr.com/65535/2891884604_9969709213_b.jpg
艋舺老街巡禮,walk,台北,萬華區,傳統商店與在地生活,老街,在地,散步,,依場館或店家為準,依消費或免費,,,https://maps.app.goo.gl/?q=%E8%89%8B%E8%88%BA%E8%80%81%E8%A1%97%E5%B7%A1%E7%A6%AE,https://www.travel.taipei/content/images/attractions/373626/1024x768_attractions-image-ku6cm8yzxuo_z27stidmvq.jpg
電影主題街區（武昌街）,walk,台北,萬華區,老戲院與電影文化,文化,拍照,,,依場館或店家為準,依消費或免費,,,https://maps.app.goo.gl/?q=%E9%9B%BB%E5%BD%B1%E4%B8%BB%E9%A1%8C%E8%A1%97%E5%8D%80%EF%BC%88%E6%AD%A6%E6%98%8C%E8%A1%97%EF%BC%89,https://www.cinemapark.taipei/retrieve/LanguageKV/20240626120502.jpg
環南市場周邊小吃,cafe,台北,萬華區,庶民小吃與餐館,美食,在地,,,依場館或店家為準,依消費或免費,,,https://maps.app.goo.gl/?q=%E6%A1%82%E6%9E%97%E8%B7%AF%E7%BE%8E%E9%A3%9F%E5%9C%88,https://maiimage.com/wp-content/uploads/2024/12/DSC05751.jpg
國立故宮博物院,spot,台北,士林區,世界級中華文物博物館,博物館,文化,藝術,,依場館或店家為準,依消費或免費,,,https://maps.app.goo.gl/?q=%E5%9C%8B%E7%AB%8B%E6%95%85%E5%AE%AE%E5%8D%9A%E7%89%A9%E9%99%A2,https://i.ytimg.com/vi/gGfWI06rSHU/maxresdefault.jpg
士林夜市,cafe,台北,士林區,台北規模最大觀光夜市,夜市,小吃,觀光,,依場館或店家為準,依消費或免費,,,https://maps.app.goo.gl/?q=%E5%A3%AB%E6%9E%97%E5%A4%9C%E5%B8%82,https://cdn-futurecity.cw.com.tw/article/201906/article-5d15e5278442b.png
士林官邸公園,walk,台北,士林區,玫瑰園與歷史建築,公園,花卉,拍照,,依場館或店家為準,依消費或免費,,,https://maps.app.goo.gl/?q=%E5%A3%AB%E6%9E%97%E5%AE%98%E9%82%B8%E5%85%AC%E5%9C%92,https://www.travel.taipei/content/images/attractions/221280/1024x768_attractions-image-1gzgzuzo-kq7ucuzo4oh9q.jpg
天文科學教育館,spot,台北,士林區,天文主題展與劇場,科學,教育,親子,,依場館或店家為準,依消費或免費,,,https://maps.app.goo.gl/?q=%E5%A4%A9%E6%96%87%E7%A7%91%E5%AD%B8%E6%95%99%E8%82%B2%E9%A4%A8,https://cdn.prod.website-files.com/618ee2b2afb186231d86ad95/6194b500cd02d0a9989d1993_IMG_0450.jpg
國立臺灣科學教育館,spot,台北,士林區,大型科教展覽與活動,科學,教育,親子,,依場館或店家為準,依消費或免費,,,https://maps.app.goo.gl/?q=%E5%9C%8B%E7%AB%8B%E8%87%BA%E7%81%A3%E7%A7%91%E5%AD%B8%E6%95%99%E8%82%B2%E9%A4%A8,https://systemeblob.blob.core.windows.net/allticket-prod/media/1af4e52e-6489-48db-a961-ff9b32d87b1b.jpg
天母商圈,cafe,台北,士林區,異國風情與餐飲街區,購物,美食,休閒,,依場館或店家為準,依消費或免費,,,https://maps.app.goo.gl/?q=%E5%A4%A9%E6%AF%8D%E5%95%86%E5%9C%88,https://cpok.tw/wp-content/uploads/2025/10/2025-2.jpg
芝山岩生態保護區,walk,台北,士林區,自然步道與史前遺址,自然,步道,生態,,依場館或店家為準,依消費或免費,,,https://maps.app.goo.gl/H2GGEvkFeFrJVZdHA,https://taiwaneseyuyu.com/wp-content/uploads/2025/03/%E8%8A%9D%E5%B1%B1%E5%B2%A9%E6%AD%A5%E9%81%93-%E6%9C%A8%E6%A3%A7%E9%81%93%E7%9F%B3%E9%A0%AD%E7%B7%A9%E5%9D%A1.png
至善園,walk,台北,士林區,中式園林，四季景觀,園林,散步,拍照,,依場館或店家為準,依消費或免費,,,https://maps.app.goo.gl/?q=%E8%87%B3%E5%96%84%E5%9C%92,https://egoldenyears.com/wp-content/uploads/2019/01/20190110_t0118-1.jpg
雙溪溝古道,walk,台北,士林區,近郊自然步道系統,步道,自然,,,依場館或店家為準,依消費或免費,,,https://maps.app.goo.gl/PwLw2mTHrLhPeDPz8,https://senior.104.com.tw/img/zip/a511261e85924e1c858451ad8b47c96a11.jpg
士林官邸正館（特展）,spot,台北,士林區,不定期展覽與導覽,展覽,歷史,,,依場館或店家為準,依消費或免費,,,https://maps.app.goo.gl/?q=%E5%A3%AB%E6%9E%97%E5%AE%98%E9%82%B8%E6%AD%A3%E9%A4%A8%EF%BC%88%E7%89%B9%E5%B1%95%EF%BC%89,https://travelss.net/wp-content/uploads/2025/06/1024x768_attractions-image-cgiya9fky024acrh6r7wnw.jpg
北投溫泉博物館,spot,台北,北投區,日式木造建築與溫泉史,博物館,溫泉,歷史,,依場館或店家為準,依消費或免費,,,https://maps.app.goo.gl/?q=%E5%8C%97%E6%8A%95%E6%BA%AB%E6%B3%89%E5%8D%9A%E7%89%A9%E9%A4%A8,https://www.travel.taipei/image/222580/?r=1637899247476
北投圖書館,spot,台北,北投區,綠建築代表，閱讀空間,建築,閱讀,拍照,,依場館或店家為準,依消費或免費,,,https://maps.app.goo.gl/?q=%E5%8C%97%E6%8A%95%E5%9C%96%E6%9B%B8%E9%A4%A8,https://www.travel.taipei/image/221372/?r=1637049815694
地熱谷,spot,台北,北投區,硫磺蒸汽與綠藍色泉池,自然,溫泉,地質,,依場館或店家為準,依消費或免費,,,https://maps.app.goo.gl/?q=%E5%9C%B0%E7%86%B1%E8%B0%B7,https://www-ws.gov.taipei/Download.ashx?u=LzAwMS9VcGxvYWQvMzMxL2NrZmlsZS8xZmFjMTc5MC01MGRjLTQ5MjItYjQwYi0zOGZmYjY3ODhmMWUuanBn&n=5Zyw54ax6LC3MS5KUEc%3D&icon=.JPG
北投溫泉公園,walk,台北,北投區,溫泉主題公園與步道,公園,散步,溫泉,,依場館或店家為準,依消費或免費,,,https://maps.app.goo.gl/?q=%E5%8C%97%E6%8A%95%E6%BA%AB%E6%B3%89%E5%85%AC%E5%9C%92,https://www.taiwan.net.tw/att/1/big_scenic_spots/pic_2898_4.jpg
普濟寺,spot,台北,北投區,和風木造寺院建築,宗教,建築,,,依場館或店家為準,依消費或免費,,,https://maps.app.goo.gl/?q=%E6%99%AE%E6%BF%9F%E5%AF%BA,https://pgw.udn.com.tw/gw/photo.php?u=https://uc.udn.com.tw/photo/2023/05/23/0/22212653.jpg&x=0&y=0&sw=0&sh=0&exp=3600&w=800
關渡宮,spot,台北,北投區,北臺灣媽祖廟名剎,宗教,寺廟,信仰,,依場館或店家為準,依消費或免費,,,https://maps.app.goo.gl/?q=%E9%97%9C%E6%B8%A1%E5%AE%AE,https://www.peopo.org/files/public/styles/wide/public/images/31616/S__78495945.jpg.webp?itok=chvOG5yH
關渡自然公園,walk,台北,北投區,濕地生態保護區,生態,觀鳥,自然,,依場館或店家為準,依消費或免費,,,https://maps.app.goo.gl/?q=%E9%97%9C%E6%B8%A1%E8%87%AA%E7%84%B6%E5%85%AC%E5%9C%92,https://www.taiwan.net.tw/att/1/big_scenic_spots/pic_R173_8.jpg
竹子湖,walk,台北,北投區,季節花田與農園體驗,賞花,農園,步道,,依場館或店家為準,依消費或免費,,,https://maps.app.goo.gl/?q=%E7%AB%B9%E5%AD%90%E6%B9%96,https://www.settour.com.tw/ss_img/poi/20220308/413f092a-879f-48e1-a465-6f39815f08d7.jpg
泉源公園溫泉泡腳,spot,台北,北投區,免費泡腳池，周邊多家溫泉旅宿聚落,溫泉,放鬆,,,依場館或店家為準,依消費或免費,,,https://maps.app.goo.gl/?q=%E6%B3%89%E6%BA%90%E8%B7%AF%E6%BA%AB%E6%B3%89%E5%8D%80,https://www-ws.gov.taipei/001/Upload/301/relpic/10162/8265715/ab7489b4-6903-4ad1-888a-e3c83dff128a.jpg
小觀音山步道,walk,台北,北投區,陽明山系近郊步道,登山,自然,,,依場館或店家為準,依消費或免費,,,https://maps.app.goo.gl/?q=%E5%B0%8F%E8%A7%80%E9%9F%B3%E5%B1%B1%E6%AD%A5%E9%81%93,https://static.accupass.com/eventintro/2307240958054299968750.jpg
大湖公園,walk,台北,內湖區,湖畔拱橋與親子遊憩,公園,親子,散步,,依場館或店家為準,依消費或免費,,,https://maps.app.goo.gl/?q=%E5%A4%A7%E6%B9%96%E5%85%AC%E5%9C%92,https://i0.wp.com/www.right-media.news/wp-content/uploads/%E5%9C%96%E7%89%871-3.png?fit=1477%2C1108&ssl=1
碧湖公園,walk,台北,內湖區,湖景步道與城市綠地,公園,散步,拍照,,依場館或店家為準,依消費或免費,,,https://maps.app.goo.gl/?q=%E7%A2%A7%E6%B9%96%E5%85%AC%E5%9C%92,https://www.travel.taipei/content/images/attractions/179260/1024x768_attractions-image-jdyzmqvgjkwonb5nuxsjxw.jpg
白石湖吊橋,walk,台北,內湖區,內湖郊山熱門吊橋,步道,拍照,戶外,,依場館或店家為準,依消費或免費,,,https://maps.app.goo.gl/?q=%E7%99%BD%E7%9F%B3%E6%B9%96%E5%90%8A%E6%A9%8B,https://www.travel.taipei/content/images/attractions/222316/1024x768_attractions-image-ijwkqczofuefkl3wsyq1la.jpg
內溝溪步道,walk,台北,內湖區,親水步道與自然生態,步道,生態,親子,,依場館或店家為準,依消費或免費,,,https://maps.app.goo.gl/?q=%E5%85%A7%E6%BA%9D%E6%BA%AA%E6%AD%A5%E9%81%93,https://tianya.tw/wp-content/uploads/2025/02/donghu-lohas-park-1.jpg
金面山步道,walk,台北,內湖區,岩稜視野極佳的郊山,登山,景觀,戶外,,依場館或店家為準,依消費或免費,,,https://maps.app.goo.gl/?q=%E9%87%91%E9%9D%A2%E5%B1%B1%E6%AD%A5%E9%81%93,https://taiwantour.net/wp-content/uploads/2020/10/1604016276-bd09404cc3f2b4e104c8118eb246363c.jpg
737巷美食街,spot,台北,內湖區,此商圈亦鄰近著名的歐式風格的湖光教會、臺北花卉市場、風光明魅的碧湖，再加上內湖捷運港墘站，更讓此商圈充滿魅力與驚喜，為一拜訪內湖時必遊逛之處。,商務,美食,,,依場館或店家為準,依消費或免費,,,https://maps.app.goo.gl/SNYu5h4rwBhsNeiu6,https://www-ws.gov.taipei/Download.ashx?u=LzAwMS9VcGxvYWQvNDA5L2NrZmlsZS81NjNjZTFhMy1kOGI0LTRkMjctYjdmZi0zNDI3ZjdhZTRkN2YuanBn&n=MS7pppblnJYuanBn&icon=.jpg
碧山巖,spot,台北,內湖區,寺廟與觀景平台,宗教,觀景,拍照,,依場館或店家為準,依消費或免費,,,https://maps.app.goo.gl/?q=%E7%A2%A7%E5%B1%B1%E5%B7%96,https://www.dahuparkhotel.com.tw/wp-content/uploads/sites/146/2022/10/%E7%A2%A7%E5%B1%B1%E5%B7%96.jpg
內湖花市（週末）,spot,台北,內湖區,園藝植栽與花卉選購,花卉,市集,,,依場館或店家為準,依消費或免費,,,https://maps.app.goo.gl/?q=%E5%85%A7%E6%B9%96%E8%8A%B1%E5%B8%82%EF%BC%88%E9%80%B1%E6%9C%AB%EF%BC%89,https://www.travel.taipei/content/images/attractions/222735/1024x768_attractions-image-fnu8dlinyusff_gqj58pzg.jpg
南港展覽館,spot,台北,南港區,國際展覽與大型活動場域,展覽,會展,活動,,依場館或店家為準,依消費或免費,,,https://maps.app.goo.gl/?q=%E5%8D%97%E6%B8%AF%E5%B1%95%E8%A6%BD%E9%A4%A8,https://www.tainex.com.tw/images/about5.jpg
南港軟體園區,spot,台北,南港區,園區周邊餐飲與商務聚落,商務,美食,,,依場館或店家為準,依消費或免費,,,https://maps.app.goo.gl/?q=%E5%8D%97%E6%B8%AF%E8%BB%9F%E9%AB%94%E5%9C%92%E5%8D%80,https://upload.wikimedia.org/wikipedia/commons/2/2f/Nangang_Software_Park_Station_202001.jpg
瓶蓋工廠台北製造所,spot,台北,南港區,老廠房再生文創聚落,文創,展覽,市集,,依場館或店家為準,依消費或免費,,,https://maps.app.goo.gl/?q=%E7%93%B6%E8%93%8B%E5%B7%A5%E5%BB%A0%E5%8F%B0%E5%8C%97%E8%A3%BD%E9%80%A0%E6%89%80,https://travelss.net/wp-content/uploads/2025/06/image-14-146.jpg
南港山縱走親山步道,walk,台北,南港區,連稜步道展望大台北,登山,景觀,戶外,,依場館或店家為準,依消費或免費,,,https://maps.app.goo.gl/a8Mu7Ewiu1o5mAQW9,https://blogger.googleusercontent.com/img/b/R29vZ2xl/AVvXsEjUiXYGsRGbq73KO--2M21unpFHDMidWB7l9FhLLR-6cwRLA8A0iBgx9Hhn6q3aMKhbDaFJAfOjeXw2LgCWrZvTiwFrSkZSKGcy77Qp--rkikCVxKjL9xIAFnLY5JKR6CFPVDC-puG3oc15EPb9IWGmO8G7crAMDcH_EeSy1_fI1poC11vjbMo0DHxMrw/s16000/nangangshan05.jpg
虎山親山步道（南港口）,walk,台北,南港區,信義四獸山連線之一,登山,自然,,,依場館或店家為準,依消費或免費,,,https://maps.app.goo.gl/?q=%E8%99%8E%E5%B1%B1%E8%A6%AA%E5%B1%B1%E6%AD%A5%E9%81%93%EF%BC%88%E5%8D%97%E6%B8%AF%E5%8F%A3%EF%BC%89,https://cdn-smiletaiwan.cw.com.tw/article/202004/article-5e9ea9eb69ed4.jpg
九五峰,walk,台北,南港區,俯瞰信義與南港的制高點,登山,夜景,,,依場館或店家為準,依消費或免費,,,https://maps.app.goo.gl/?q=%E4%B9%9D%E4%BA%94%E5%B3%B0,https://cdntwrunning.biji.co/600_7717415a3684dfd149862b5da5c66915.jpg
南港公園,walk,台北,南港區,社區綠地與運動設施,公園,運動,親子,,依場館或店家為準,依消費或免費,,,https://maps.app.goo.gl/?q=%E5%8D%97%E6%B8%AF%E5%85%AC%E5%9C%92,https://www.travel.taipei/content/images/attractions/292566/1920x1080_attractions-image-bxyvnvncbeozhhn3ptow1a.jpg
CITYLINK南港,spot,台北,南港區,車站共構商場與美食,購物,美食,,,依場館或店家為準,依消費或免費,,,https://maps.app.goo.gl/?q=CITYLINK%E5%8D%97%E6%B8%AF,https://www.citylink.tw/wp-content/uploads/CITYLINK01-1024x708.jpg
LALAPORT南港,spot,台北,南港區,大型百貨商場與美食，聚集眾多新興服飾及餐飲品牌,購物,美食,,,依場館或店家為準,依消費或免費,,,https://maps.app.goo.gl/pq5XZQVD14pgGyun7,https://www.savc-vision.com/wp-content/uploads/2025/03/%E5%8D%97%E6%B8%AF-LaLaport.png
南港車站（四鐵共構）,spot,台北,南港區,交通樞紐與城市建築，四鐵共構，車站大樓有CITYLINK商場以及Global Mall環球購物中心,交通,建築,,,依場館或店家為準,依消費或免費,,,https://maps.app.goo.gl/?q=%E5%8D%97%E6%B8%AF%E8%BB%8A%E7%AB%99%EF%BC%88%E5%9B%9B%E9%90%B5%E5%85%B1%E6%A7%8B%EF%BC%89,https://www.peopo.org/files/public/styles/wide/public/images/32369/20220630_171247%280%29-0.jpg.webp?itok=XjVUXz3B
貓空纜車,spot,台北,文山區,山城纜車體驗與景觀,纜車,觀景,旅遊,,依場館或店家為準,依消費或免費,,,https://maps.app.goo.gl/?q=%E8%B2%93%E7%A9%BA%E7%BA%9C%E8%BB%8A,https://cdn.fontrip.com/fontour/file/show/RBmrl/1200.jpg
臺北市立動物園（木柵）,spot,台北,文山區,全齡向動物園區,動物園,親子,教育,,依場館或店家為準,依消費或免費,,,https://maps.app.goo.gl/?q=%E8%87%BA%E5%8C%97%E5%B8%82%E7%AB%8B%E5%8B%95%E7%89%A9%E5%9C%92%EF%BC%88%E6%9C%A8%E6%9F%B5%EF%BC%89,https://museums.moc.gov.tw/Upload/FrontPhoto/233c8359-fe34-4c45-b87e-83b2498a421d.jpg
指南宮,spot,台北,文山區,山腰宮殿式廟宇與步道,宗教,觀景,步道,,依場館或店家為準,依消費或免費,,,https://maps.app.goo.gl/?q=%E6%8C%87%E5%8D%97%E5%AE%AE,https://www.chih-nan-temple.org/upload_files/web/uploadfile/2022101816/original/221018165107884426.jpg
政大校園,walk,台北,文山區,山城校園與人文氣息,校園,散步,,,依場館或店家為準,依消費或免費,,,https://maps.app.goo.gl/?q=%E6%94%BF%E5%A4%A7%E6%A0%A1%E5%9C%92,https://www.nccu.edu.tw/var/file/0/1000/pictures/751/part_16168_1998845_40384.jpg
貓空茶園,cafe,台北,文山區,茶餐與觀景步道,茶屋,景觀,美食,,依場館或店家為準,依消費或免費,,,https://maps.app.goo.gl/?q=%E8%B2%93%E7%A9%BA%E8%8C%B6%E5%9C%92,https://static.styletc.com/images/cover/6/104806/md-ad2f1ac1e877d7728997e0a6dff2c9ce.jpg
仙跡岩步道,walk,台北,文山區,近郊親民步道,登山,自然,戶外,,依場館或店家為準,依消費或免費,,,https://maps.app.goo.gl/?q=%E4%BB%99%E8%B7%A1%E5%B2%A9%E6%AD%A5%E9%81%93,https://assets.hikingbook.net/users/0q4b4lqfr99czlvuxda85kq/tiw0lvy1ssumj64ivya1kg/1e7f92a9-3104-4bb0-b477-396787f6802e.jpg
景美夜市,cafe,台北,文山區,在地人氣夜市,夜市,小吃,在地,,依場館或店家為準,依消費或免費,,,https://maps.app.goo.gl/?q=%E6%99%AF%E7%BE%8E%E5%A4%9C%E5%B8%82,https://www-ws.gov.taipei/Download.ashx?u=LzAwMS9VcGxvYWQvNDA5L2NrZmlsZS84NzQ2MDNiZC05ZDYxLTRkNDgtOTRjMi1lYTFmOGZkMTQyNGEuanBn&n=MSDpppblnJYuanBn&icon=.jpg
景美人權文化園區,spot,台北,文山區,人權史主題園區,歷史,文化,,,依場館或店家為準,依消費或免費,,,https://maps.app.goo.gl/?q=%E6%99%AF%E7%BE%8E%E4%BA%BA%E6%AC%8A%E6%96%87%E5%8C%96%E5%9C%92%E5%8D%80,https://newtaipei.travel/content/images/attractions/66720/1920x1080_attractions-image-jwelhu5-mksrethmholr6w.jpg
政治大學周邊小吃街,cafe,台北,文山區,學生美食聚集,美食,平價,,,依場館或店家為準,依消費或免費,,,https://maps.app.goo.gl/?q=%E6%94%BF%E6%B2%BB%E5%A4%A7%E5%AD%B8%E5%91%A8%E9%82%8A%E5%B0%8F%E5%90%83%E8%A1%97,https://www.cmmedia.com.tw/file/54961/1632386463_100106_cropped_63_1632386423_100106_DSC_4412.JPG
樟山寺步道,walk,台北,文山區,茶園串聯的景觀步道,步道,景觀,自然,,依場館或店家為準,依消費或免費,,,https://maps.app.goo.gl/?q=%E6%A8%9F%E5%B1%B1%E5%AF%BA%E6%AD%A5%E9%81%93,https://upload.wikimedia.org/wikipedia/commons/thumb/2/20/%E6%A8%9F%E5%B1%B1%E5%AF%BA%E6%AD%A5%E9%81%93%E5%85%A5%E5%8F%A3.JPG/1200px-%E6%A8%9F%E5%B1%B1%E5%AF%BA%E6%AD%A5%E9%81%93%E5%85%A5%E5%8F%A3.JPG
象山六巨石觀景點,walk,台北,信義區,象山步道支線的熱門打卡點，近距離眺望台北101天際線,夜景,登山,拍照,,全天開放,免費,,,[https://www.google.com/maps/search/?api=1&query=象山六巨石觀景點](https://www.google.com/maps/search/?api=1&query=象山六巨石觀景點),https://www.travel.taipei/image/222131/?r=1637654105614
松德公園,walk,台北,信義區,社區綠地與親子遊具，午後散步的清幽角落,公園,親子,散步,,05:00–22:00（以現場公告為準）,免費,,,[https://www.google.com/maps/search/?api=1&query=松德公園](https://www.google.com/maps/search/?api=1&query=松德公園),https://nienie.tw/wp-content/uploads/2023/05/%E5%8F%B0%E5%8C%97%E5%B8%82%E5%85%AC%E5%9C%92%EF%BD%9C%E4%BF%A1%E7%BE%A9%E5%8D%80%E5%85%92%E7%AB%A5%E5%85%AC%E5%9C%92%EF%BD%9C%E6%9D%BE%E5%BE%B7%E5%85%AC%E5%9C%92101%E9%99%84%E8%BF%91%E5%B8%82%E4%B8%AD%E5%BF%83%E7%9A%84%E6%A3%AE%E6%9E%97%E9%81%8A%E6%88%B2%E5%A0%B4-4838.jpg
象山永春崗公園天空步道,walk,台北,信義區,木棧道穿梭樹梢，俯瞰信義區街景,步道,景觀,自然,,全天開放,免費,,,[https://www.google.com/maps/search/?api=1&query=永春崗公園](https://www.google.com/maps/search/?api=1&query=永春崗公園),https://dynamic-media-cdn.tripadvisor.com/media/photo-o/29/9f/16/1d/caption.jpg?w=900&h=500&s=1
和平公園（大安）,walk,台北,大安區,鄰近師大商圈的社區公園，跑步散步友善,公園,運動,散步,,05:00–22:00（以現場公告為準）,免費,,,[https://www.google.com/maps/search/?api=1&query=和平公園](https://www.google.com/maps/search/?api=1&query=和平公園) 大安,https://lh3.googleusercontent.com/gps-cs-s/AC9h4npG8KtqAek0jooSL0rhGa1S_ng6ifB9TVc7WWnMgerI1tlAgDtiQVYJgMHforc1mcxrhv-huXOLA977q_JW5EwI7r4X95ahp1DpeRtOATMoVNzT0GXchBRZoApjz5BS9xc3xeTR=w426-h240-k-no
溫州街書店群,cafe,台北,大安區,巷弄間的獨立書店與咖啡館聚落，文青漫遊路線,文青,咖啡,書店,,依店家為準,依消費,,,[https://maps.app.goo.gl/Brrr5FoUdSgTm3me8) ,https://encrypted-tbn0.gstatic.com/images?q=tbn:ANd9GcRoEV3VRkb3_lzcK1MfsjiE566fl9GKWqlY0HfdaMqDEHosRPo3umieZWosSUKva5sXiFQ&usqp=CAU
北門（承恩門）,spot,台北,中正區,清代城門古蹟，周邊行人友善廣場適合拍照,歷史,地標,拍照,,戶外全天；城門內部開放依公告,免費,,,[https://www.google.com/maps/search/?api=1&query=北門](https://www.google.com/maps/search/?api=1&query=北門) 承恩門,https://www.travel.taipei/content/images/attractions/64135/1024x768_attractions-image-exedjfnp7kw36fypet9puw.jpg
臺博館鐵道部園區,spot,台北,中正區,日式辦公廳舍修復，展示鐵道文化與城市記憶,博物館,鐵道,歷史,,依館方公告,依票價或免費日,,,[https://www.google.com/maps/search/?api=1&query=臺博館](https://www.google.com/maps/search/?api=1&query=臺博館) 鐵道部園區,https://www.wowlavie.com/files/article/a1/18116/atl_m_200018116_341.jpg
古亭河濱公園,walk,台北,中正區,特定季節有壯觀的花海可以欣賞,綠道,散步,社區,,全天開放,免費,,,https://maps.app.goo.gl/YFdSSCabozA7t7o56,https://www.travel.taipei/image/442016/?r=1705456298557
延三夜市,cafe,台北,大同區,在地口味小吃聚集的老字號夜市,夜市,小吃,在地,,傍晚至深夜（依店家）,依消費,,,[https://www.google.com/maps/search/?api=1&query=延三夜市](https://www.google.com/maps/search/?api=1&query=延三夜市),https://beri.tw/wp-content/uploads/2023/04/tepan-7.jpg
台北當代藝術館（MOCA）,spot,台北,大同區,歷史校舍改建，展出當代藝術與策展,藝術,展覽,建築,,依館方公告（週一休）,依票價或免費日,,,[https://www.google.com/maps/search/?api=1&query=台北當代藝術館](https://www.google.com/maps/search/?api=1&query=台北當代藝術館),https://d3d9mb8xdsbq52.cloudfront.net/s3/210224/180708udv.jpg
太原商圈布市巷弄,cafe,台北,大同區,布行與手作材料店密集，也有隱藏小吃,布料,手作,在地,,依店家為準,依消費,,,[https://www.google.com/maps/search/?api=1&query=太原路](https://www.google.com/maps/search/?api=1&query=太原路) 布市,https://cdn.walkerland.com.tw/taipeiwalker/master/images/RpwcN3Sm9GdMv4HJmmnYqLOtgwKtkeNqaei7A6Yv.jpg
晴光公園,walk,台北,中山區,周邊有晴光商圈聚集很多美食，可以買一些小吃到公園品嘗,老屋,散步,拍照,,戶外全天；開放空間依公告,免費,,,https://maps.app.goo.gl/JNv8JichqWtkk2pR6,https://ppfcc.org/wp-content/uploads/2023/07/20230701_080305.jpg
行天宮地下命理街,spot,台北,中山區,提供各式命理、占卜服務的地下街，雨天備案好去處,命理,文化,雨天備案,,依場館公告,免費,,,[https://www.google.com/maps/search/?api=1&query=行天宮](https://www.google.com/maps/search/?api=1&query=行天宮) 書香園地,https://www.travel.taipei/content/images/attractions/89560/1024x768_attractions-image-pgbsusenq06moouxgsw9pg.jpg
濱江果菜市場,spot,台北,中山區,與魚市不同的清晨批發市場，感受城市早晨節奏,市場,在地,清晨,,清晨時段為主（依市場公告）,依消費,,,[https://www.google.com/maps/search/?api=1&query=濱江果菜市場](https://www.google.com/maps/search/?api=1&query=濱江果菜市場),https://www.travel.taipei/content/images/attractions/282246/1024x768_attractions-image-wgrdk7h4wuqsj9lbqafodq.jpg
四平陽光商圈,cafe,台北,中山區,商圈內有各種女性服飾專賣店、裝飾小物、鞋子、包包、家庭用品、童裝、精品等，也聚集許多平價餐廳及小吃，位在捷運松江南京站附近,市場,早午餐,在地,,清晨至中午為主（依店家）,依消費,,,https://maps.app.goo.gl/8J5Sh1NyRTzV1a8o9,https://www.travel.taipei/content/images/attractions/176898/1024x768_attractions-image-czxforu7ykcvpawwymzaqw.jpg
觀山河濱公園,walk,台北,松山區,這座河濱公園可遠眺民權大橋，設有景觀花園、自行車道和運動區。,河濱,運動,夕陽,,全天開放（夜間照明依公園處）,免費,,,https://maps.app.goo.gl/8W6EeZC6YTqcYTUR8,https://cdntwrunning.biji.co/600_8f094e8d6d80282a97afc941ecd4dea4.jpg
剝皮寮旁艋舺青山宮市集巷,cafe,台北,萬華區,廟埕周邊小吃老店與文創攤位不定期出現,廟埕,小吃,在地,,依活動與店家為準,依消費,,,[https://www.google.com/maps/search/?api=1&query=艋舺青山宮](https://www.google.com/maps/search/?api=1&query=艋舺青山宮),https://www.travel.taipei/content/images/attractions/64010/1024x768_attractions-image-f43jwlsksuugbs-gbock9a.jpg
和平青草園,walk,台北,萬華區,有少見的船擺盪鞦韆、網美系月亮鞦韆及大型木造攀爬設施，加上人工草皮、木屑鋪面及遮陽措施，很適合帶孩子來放風玩樂！,公園,親子,散步,,05:00–22:00（以現場公告為準）,免費,,,https://maps.app.goo.gl/Az5DMhXRoQH7SYsS8,https://www-ws.gov.taipei/Download.ashx?u=LzAwMS9VcGxvYWQvMzQ4L2NrZmlsZS9jZjc0NWIyNC0yZWM2LTQ1YTktOGVmOS0zY2MxZTg0NTJlMjguanBn&n=5YWo5pmvcy5qcGc%3D&icon=.jpg
東三水街-新富市場,cafe,台北,萬華區,傳統市場的生活風景，早餐選擇豐富,市場,早餐,在地,,清晨至中午（多數攤商）,依消費,,,[https://www.google.com/maps/search/?api=1&query=東三水街市場](https://www.google.com/maps/search/?api=1&query=東三水街市場),https://yuki.tw/wp-content/uploads/2024/08/20240827095653_0_3c03e0.jpg
芝山文化生態綠園,walk,台北,士林區,都市中的自然教室，保留原始林相與步道,生態,步道,教育,,依園區公告（週一休）,依票價或免費日,,,[https://www.google.com/maps/search/?api=1&query=芝山文化生態綠園](https://www.google.com/maps/search/?api=1&query=芝山文化生態綠園),https://www.17life.com/Images/imagesU/5/5a5ee91d-f7ad-4a09-8b47-5728d339299f/%E5%9C%92%E5%8D%80%E7%85%A7%E7%89%8701.JPG?1659349573
天母運動公園,walk,台北,士林區,棒球場周邊的公園，假日常見親子運動,河濱,運動,親子,,全天開放（球場依預約）,免費（設施另計）,,,https://maps.app.goo.gl/sggenwz67DgtmGfa7,https://www.travel.taipei/content/images/attractions/191148/1024x768_attractions-image-zpo5fpurkkey4cgrnav2kg.jpg
蘭雅1號公園,walk,台北,士林區,有遊戲場的社區公園,公園,季節,野餐,,05:00–22:00（以現場公告為準）,免費,,,https://maps.app.goo.gl/fYj8FkR3wL3dGQkh7,https://parks.gov.taipei/parks/images/C1-1.jpg
瀧乃湯溫泉（舊北投）,spot,台北,北投區,老字號公共湯屋，感受北投最在地的溫泉文化,溫泉,在地,放鬆,,依店家公告,依票價,,,[https://www.google.com/maps/search/?api=1&query=瀧乃湯](https://www.google.com/maps/search/?api=1&query=瀧乃湯) 北投,https://www.wowlavie.com/files/article/a1/10176/atl_m_180010176_871.jpg
復興崗鐵道園區,walk,台北,北投區,可以在天橋上拍照，欣賞鐵道園區的景色，黃昏時分還能看到夕陽西下的美景,河濱,夕陽,拍照,,全天開放,免費,,,[https://www.google.com/maps/search/?api=1&query=復興崗](https://www.google.com/maps/search/?api=1&query=復興崗) 河濱 觀景平台,https://i0.wp.com/yogiiilovestea.com/wp-content/uploads/2022/07/20220717223607_75-1000x595.jpg
北投中心新村（眷村文化園區）,spot,台北,北投區,眷村聚落保存與展覽，漫步老屋巷弄,眷村,歷史,展覽,,依園區公告,免費或依票價,,,[https://www.google.com/maps/search/?api=1&query=北投](https://www.google.com/maps/search/?api=1&query=北投) 中心新村,https://www-ws.gov.taipei/001/Upload/686/relpic/45246/119055/0a967f46-4007-4a8f-96f9-914ce270468a.jpg
大溝溪生態治水園區,walk,台北,內湖區,濕地與滯洪池結合的自然步道，四季各有景緻,生態,步道,親子,,全天開放,免費,,,[https://www.google.com/maps/search/?api=1&query=大溝溪](https://www.google.com/maps/search/?api=1&query=大溝溪) 生態治水園區,https://s.yimg.com/ny/api/res/1.2/gFR1VdMsaegTQuhH8JQhuw--/YXBwaWQ9aGlnaGxhbmRlcjt3PTY0MDtoPTQyNw--/https://media.zenfs.com/ko/newtalk.tw/d86eaed80902bba246be6030b0663aec
碧山露營場空中廊道觀景台,walk,台北,內湖區,碧山露營場中的絕美S型吊橋,夜景,拍照,城市,,全天開放（注意安全）,免費,,,https://maps.app.goo.gl/4frF2Cq2CpW7CCt27,https://obs.line-scdn.net/0huHsfskO0KmdOHzkBKPdVMHdJJhZ9bSxvN2c3Bm8fcgcxK3FkdHBtHW4ddwd_J2tjd2U2VmwcJFJhKDphdn8
湖光市場,cafe,台北,內湖區,早市補給＋旁邊公園休憩，一日輕旅行起點,市場,早午餐,公園,,市場清晨至中午；公園全天,依消費／免費,,,https://maps.app.goo.gl/GXTLApeSDxbAYRkX9,https://www.cityyeast.com/userfiles/image/2015/workshop/Taiwan_Traditional_Market_MaD/Taiwan_Traditional_Market_MaD_3.jpg
四獸山虎山峰稜線,walk,台北,南港區,相對冷門的稜線視野，能遠眺基隆河谷,登山,景觀,戶外,,全天開放（注意天候）,免費,,,[https://www.google.com/maps/search/?api=1&query=四獸山](https://www.google.com/maps/search/?api=1&query=四獸山) 虎山峰 稜線,https://g.udn.com.tw/upfiles/B_SA/sabrinaleong/PSN_PHOTO/947/f_27451947_1.JPG
成美右岸河濱（南港段）,walk,台北,南港區,河濱散步看飛機與夕陽，連接松山機場航道視角,河濱,夕陽,飛機,,全天開放,免費,,,[https://www.google.com/maps/search/?api=1&query=成美右岸](https://www.google.com/maps/search/?api=1&query=成美右岸) 南港,https://www.travel.taipei/content/images/attractions/181498/1024x768_attractions-image-jfkoebavseq4vtkwicy7ka.jpg
南港茶葉製造示範場,spot,台北,南港區,保留茶業文化的歷史建物，不定期展覽活動,茶業,歷史,文化,,依場館公告,免費或依票價,,,[https://www.google.com/maps/search/?api=1&query=南港](https://www.google.com/maps/search/?api=1&query=南港) 茶葉製造示範場,https://dynamic-media-cdn.tripadvisor.com/media/photo-o/08/4a/36/d2/getlstd-property-photo.jpg?w=1200&h=-1&s=1
木柵貓空樟樹步道,walk,台北,文山區,茶園之間的林蔭步道，串連多處觀景台,步道,茶園,景觀,,全天開放,免費,,,[https://www.google.com/maps/search/?api=1&query=樟樹步道](https://www.google.com/maps/search/?api=1&query=樟樹步道) 貓空,https://www.travel.taipei/content/images/attractions/492027/1920x1080_attractions-image-lnyspdl0teqarvfhubxe6g.jpg
景美溪河濱（萬慶橋至文山段）,walk,台北,文山區,沿溪平坦好走，適合黃昏散步與單車,河濱,單車,夕陽,,全天開放（夜間照明依公園處）,免費,,,[https://www.google.com/maps/search/?api=1&query=景美溪](https://www.google.com/maps/search/?api=1&query=景美溪) 河濱 文山,https://www.travel.taipei/image/220841/?r=1636507975044
文山森林公園,walk,台北,文山區,社區運動設施完善，親子放電首選,親子,運動,公園,,05:00–22:00（以現場公告為準）,免費,,,https://maps.app.goo.gl/LKMQCi9RKJxVtwKx7,https://bucket-image.inkmaginecms.com/version/social/1/image/2025/05/09f40f6a-32b7-47e4-bdbc-dad75ee11f82.jpg
